NORAD_CAT_ID,OBJECT_NAME,OBJECT_TYPE,EPOCH,MEAN_MOTION,ECCENTRICITY,INCLINATION,RA_OF_ASC_NODE,ARG_OF_PERICENTER,MEAN_ANOMALY,BSTAR,MEAN_MOTION_DOT,MEAN_MOTION_DDOT,TLE_LINE0,TLE_LINE1,TLE_LINE2,SEMIMAJOR_AXIS,PERIOD,APOGEE,PERIGEE,DECAYED
49457.0,STARLINK-3132,PAYLOAD,2024-08-19 12:16:00,15.0884132,0.0001349,53.2159,245.2956,96.4232,263.6914,-9.0011e-06,-4.31e-06,0.0,0 STARLINK-3132,1 49457U 21104BB  24232.51111240 -.00000431  00000-0 -90011-5 0  9991,2 49457  53.2159 245.2956 0001349  96.4232 263.6914 15.08841320153150,6917.876,95.437,540.675,538.808,0.0
49457.0,STARLINK-3132,PAYLOAD,2024-08-20 04:09:51,15.0884104,0.0001326,53.2156,242.322,95.8327,264.2817,6.5168e-05,7.49e-06,0.0,0 STARLINK-3132,1 49457U 21104BB  24233.17350972  .00000749  00000-0  65168-4 0  9995,2 49457  53.2156 242.3220 0001326  95.8327 264.2817 15.08841040154320,6917.877,95.437,540.66,538.825,0.0
49457.0,STARLINK-3132,PAYLOAD,2024-08-20 07:20:37,15.08842076,0.0001328,53.2156,241.7274,95.2007,264.9136,7.2207e-05,8.62e-06,0.0,0 STARLINK-3132,1 49457U 21104BB  24233.30598878  .00000862  00000-0  72207-4 0  9997,2 49457  53.2156 241.7274 0001328  95.2007 264.9136 15.08842076153277,6917.874,95.437,540.658,538.82,0.0
49457.0,STARLINK-3132,PAYLOAD,2024-08-21 04:00:38,15.0883573,0.0001353,53.2151,237.8616,95.456,264.6587,6.6736e-05,7.74e-06,0.0,0 STARLINK-3132,1 49457U 21104BB  24234.16711380  .00000774  00000-0  66736-4 0  9999,2 49457  53.2151 237.8616 0001353  95.4560 264.6587 15.08835730154471,6917.893,95.438,540.694,538.822,0.0
49457.0,STARLINK-3132,PAYLOAD,2024-08-21 07:11:25,15.08834401,0.0001341,53.2151,237.2669,94.8967,265.2179,5.1459e-05,5.31e-06,0.0,0 STARLINK-3132,1 49457U 21104BB  24234.29959537  .00000531  00000-0  51459-4 0  9998,2 49457  53.2151 237.2669 0001341  94.8967 265.2179 15.08834401153426,6917.898,95.438,540.69,538.835,0.0
49457.0,STARLINK-3132,PAYLOAD,2024-08-21 23:05:16,15.08837041,0.0001358,53.2149,234.2933,94.7843,265.3304,3.0715e-05,2.01e-06,0.0,0 STARLINK-3132,1 49457U 21104BB  24234.96199594  .00000201  00000-0  30715-4 0  9997,2 49457  53.2149 234.2933 0001358  94.7843 265.3304 15.08837041153529,6917.889,95.438,540.694,538.815,0.0
